IRIDIUM 921 [-]         
1 24873U 97034E   24112.56408835  .00046888  00000+0  13576-2 0  9993
2 24873  86.3801 316.0814 0005971 103.0007 257.1911 15.35378136466484
IRIDIUM 26 [-]          
1 24903U 97043A   24112.55204284  .00001530  00000+0  51722-3 0  9999
2 24903  86.3904 287.5336 0002278  87.0948 273.0509 14.36295492396200
IRIDIUM 22 [-]          
1 24907U 97043E   24112.56393018  .00001459  00000+0  50408-3 0  9998
2 24907  86.3908 290.7234 0002093  91.1961 268.9475 14.35187054396283
DUMMY MASS 1 [-]        
1 24925U 97048A   24112.56828684  .00001241  00000+0  13840-3 0  9993
2 24925  86.3341 330.1668 0006341 180.2769 179.8453 14.86147806442498
DUMMY MASS 2 [-]        
1 24926U 97048B   24112.59571261  .00001250  00000+0  14023-3 0  9997
2 24926  86.3343 331.6867 0006636 194.1229 165.9811 14.85906840442281
IRIDIUM 29 [-]          
1 24944U 97051A   24112.58451589  .00001238  00000+0  42273-3 0  9994
2 24944  86.3936 320.6526 0002063  94.7684 265.3748 14.35642820392760
IRIDIUM 33 [-]          
1 24946U 97051C   24112.55849819  .00000856  00000+0  29772-3 0  9994
2 24946  86.3850 319.9185 0008712  28.4715 331.6956 14.34318123392296
IRIDIUM 28 [-]          
1 24948U 97051E   24112.55623765  .00001237  00000+0  41438-3 0  9993
2 24948  86.3937 318.4209 0002381  79.3315 280.8150 14.36591808393299
